{
  "type": "FeatureCollection",
  "generator": "overpass-ide",
  "copyright": "The data included in this document is from www.openstreetmap.org. The data is made available under ODbL.",
  "timestamp": "2023-09-01T08:23:30Z",
  "features": [
    {
      "type": "Feature",
      "properties": {
        "@id": "node/320981530",
        "amenity": "college",
        "name": "Hillcrest Christian College (Ayr Hill Campus)"
      },
      "geometry": {
        "type": "Point",
        "coordinates": [
          145.3643874,
          -38.084432
        ]
      },
      "id": "node/320981530"
    },
    {
      "type": "Feature",
      "properties": {
        "@id": "node/356748036",
        "addr:city": "Victoria",
        "addr:housenumber": "2200",
        "addr:postcode": "77901",
        "addr:state": "TX",
        "addr:street": "East Red River Street",
        "amenity": "college",
        "gnis:feature_id": "1370632",
        "name": "Victoria College",
        "phone": "+1-361-573-3291",
        "website": "http://www.victoriacollege.edu/",
        "wikidata": "Q7926650",
        "wikipedia": "en:Victoria College (Texas)"
      },
      "geometry": {
        "type": "Point",
        "coordinates": [
          -96.9814539,
          28.8155588
        ]
      },
      "id": "node/356748036"
    },
    {
      "type": "Feature",
      "properties": {
        "@id": "node/560602477",
        "amenity": "college",
        "is_in": "Camp Street Ballarat",
        "name": "Arts Academy"
      },
      "geometry": {
        "type": "Point",
        "coordinates": [
          143.858787,
          -37.5611479
        ]
      },
      "id": "node/560602477"
    },
    {
      "type": "Feature",
      "properties": {
        "@id": "node/589366176",
        "amenity": "university",
        "name": "James Cook University"
      },
      "geometry": {
        "type": "Point",
        "coordinates": [
          144.972154,
          -37.8103129
        ]
      },
      "id": "node/589366176"
    },
    {
      "type": "Feature",
      "properties": {
        "@id": "node/607330821",
        "amenity": "college",
        "name": "Huanya Cultural Training Centre",
        "website": "http://www.huanya.com.au/"
      },
      "geometry": {
        "type": "Point",
        "coordinates": [
          145.1490967,
          -37.8768613
        ]
      },
      "id": "node/607330821"
    },
    {
      "type": "Feature",
      "properties": {
        "@id": "node/651634461",
        "amenity": "college",
        "name": "Tafe Gippsland",
        "website": "https://www.tafegippsland.edu.au/"
      },
      "geometry": {
        "type": "Point",
        "coordinates": [
          145.9330868,
          -38.1644448
        ]
      },
      "id": "node/651634461"
    },
    {
      "type": "Feature",
      "properties": {
        "@id": "node/667719350",
        "addr:city": "South Melbourne",
        "addr:housenumber": "9",
        "addr:postcode": "3205",
        "addr:street": "Palmerston Crescent",
        "amenity": "college",
        "name": "Royal Australian College of General Practitioners",
        "phone": "+61 3 86990414",
        "website": "https://www.racgp.org.au/"
      },
      "geometry": {
        "type": "Point",
        "coordinates": [
          144.970472,
          -37.8333125
        ]
      },
      "id": "node/667719350"
    },
    {
      "type": "Feature",
      "properties": {
        "@id": "node/676560593",
        "addr:city": "Carlton",
        "addr:housenumber": "11",
        "addr:postcode": "3053",
        "addr:street": "Lygon Street",
        "amenity": "university",
        "name": "RMIT Mosque / Islamic Centre",
        "note": "Accessibility: category 5",
        "operator": "RMT Univeristy"
      },
      "geometry": {
        "type": "Point",
        "coordinates": [
          144.9656975,
          -37.8065895
        ]
      },
      "id": "node/676560593"
    },
    {
      "type": "Feature",
      "properties": {
        "@id": "node/1180509364",
        "addr:housenumber": "62-70",
        "addr:street": "Johnston Street",
        "amenity": "college",
        "name": "Australian College of Complementary Medicine",
        "phone": "+61393495488"
      },
      "geometry": {
        "type": "Point",
        "coordinates": [
          144.9767802,
          -37.7983178
        ]
      },
      "id": "node/1180509364"
    },
    {
      "type": "Feature",
      "properties": {
        "@id": "node/1437990537",
        "amenity": "university",
        "name": "Monash University School of Rural Health",
        "source": "survey",
        "website": "www.med.monash.edu.au/srh/"
      },
      "geometry": {
        "type": "Point",
        "coordinates": [
          144.2815923,
          -36.7500371
        ]
      },
      "id": "node/1437990537"
    },
    {
      "type": "Feature",
      "properties": {
        "@id": "node/1443728919",
        "amenity": "university",
        "name": "NMIT Ararat Campus (Aradale)",
        "source": "knowledge"
      },
      "geometry": {
        "type": "Point",
        "coordinates": [
          142.9586284,
          -37.2796987
        ]
      },
      "id": "node/1443728919"
    },
    {
      "type": "Feature",
      "properties": {
        "@id": "node/1495222486",
        "amenity": "college",
        "name": "Glenormiston College"
      },
      "geometry": {
        "type": "Point",
        "coordinates": [
          142.952158,
          -38.1625177
        ]
      },
      "id": "node/1495222486"
    },
    {
      "type": "Feature",
      "properties": {
        "@id": "node/1674380912",
        "amenity": "university",
        "name": "Monash University Dept of Rural & Indigenous Health"
      },
      "geometry": {
        "type": "Point",
        "coordinates": [
          146.2789242,
          -38.1811367
        ]
      },
      "id": "node/1674380912"
    },
    {
      "type": "Feature",
      "properties": {
        "@id": "node/2102258037",
        "addr:city": "Southbank",
        "addr:housenumber": "332",
        "addr:postcode": "3006",
        "addr:street": "St Kilda Road",
        "amenity": "college",
        "contact:email": "citycampus@holmesglen.edu.au",
        "name": "Holmesglen (City Campus)",
        "website": "http://www.holmesglencity.edu.au/"
      },
      "geometry": {
        "type": "Point",
        "coordinates": [
          144.97068,
          -37.829856
        ]
      },
      "id": "node/2102258037"
    },
    {
      "type": "Feature",
      "properties": {
        "@id": "node/2380565208",
        "amenity": "university",
        "name": "Kerang Public Library"
      },
      "geometry": {
        "type": "Point",
        "coordinates": [
          143.915296,
          -35.734908
        ]
      },
      "id": "node/2380565208"
    },
    {
      "type": "Feature",
      "properties": {
        "@id": "node/2400425441",
        "amenity": "college",
        "name": "Peter Lalor Vocational College"
      },
      "geometry": {
        "type": "Point",
        "coordinates": [
          145.0115013,
          -37.666815
        ]
      },
      "id": "node/2400425441"
    },
    {
      "type": "Feature",
      "properties": {
        "@id": "node/2410528338",
        "addr:city": "Warrnambool",
        "addr:housenumber": "165",
        "addr:postcode": "3280",
        "addr:street": "Timor Street",
        "amenity": "university",
        "internet_access": "wlan",
        "name": "Deakin on Timor Warrnambool City Centre",
        "operator": "Deakin University"
      },
      "geometry": {
        "type": "Point",
        "coordinates": [
          142.4828283,
          -38.3858744
        ]
      },
      "id": "node/2410528338"
    },
    {
      "type": "Feature",
      "properties": {
        "@id": "node/2519212064",
        "amenity": "college",
        "name": "Australian College of Optometry",
        "wikidata": "Q4824008"
      },
      "geometry": {
        "type": "Point",
        "coordinates": [
          144.966742,
          -37.795561
        ]
      },
      "id": "node/2519212064"
    },
    {
      "type": "Feature",
      "properties": {
        "@id": "node/2804259873",
        "addr:city": "Victoria",
        "addr:housenumber": "1252",
        "addr:postcode": "V8W 1T8",
        "addr:street": "Wharf Street",
        "amenity": "college",
        "name": "Pacific Design Academy",
        "phone": "+1-250-383-3631",
        "website": "http://www.pacificdesignacademy.com/"
      },
      "geometry": {
        "type": "Point",
        "coordinates": [
          -123.3705268,
          48.4268761
        ]
      },
      "id": "node/2804259873"
    },
    {
      "type": "Feature",
      "properties": {
        "@id": "node/3276141236",
        "amenity": "college",
        "name": "Australian College of Hair Design And Beauty"
      },
      "geometry": {
        "type": "Point",
        "coordinates": [
          144.9663088,
          -37.8165633
        ]
      },
      "id": "node/3276141236"
    },
    {
      "type": "Feature",
      "properties": {
        "@id": "node/3287021777",
        "addr:housenumber": "16",
        "addr:street": "Victoria Square",
        "amenity": "college",
        "name": "Ames"
      },
      "geometry": {
        "type": "Point",
        "coordinates": [
          144.7996112,
          -37.7425509
        ]
      },
      "id": "node/3287021777"
    },
    {
      "type": "Feature",
      "properties": {
        "@id": "node/3511654224",
        "addr:housenumber": "236",
        "addr:street": "Dorcas Street",
        "amenity": "college",
        "name": "Afi"
      },
      "geometry": {
        "type": "Point",
        "coordinates": [
          144.9595971,
          -37.8330519
        ]
      },
      "id": "node/3511654224"
    },
    {
      "type": "Feature",
      "properties": {
        "@id": "node/3522857445",
        "amenity": "college",
        "name": "Evolve College"
      },
      "geometry": {
        "type": "Point",
        "coordinates": [
          144.9587777,
          -37.8308177
        ]
      },
      "id": "node/3522857445"
    },
    {
      "type": "Feature",
      "properties": {
        "@id": "node/4077652499",
        "addr:housenumber": "4/250",
        "addr:street": "Charman Road",
        "amenity": "college",
        "name": "Floral Arts School Of Australia"
      },
      "geometry": {
        "type": "Point",
        "coordinates": [
          145.055176,
          -37.968916
        ]
      },
      "id": "node/4077652499"
    },
    {
      "type": "Feature",
      "properties": {
        "@id": "node/4305233716",
        "amenity": "university",
        "name": "ICEST"
      },
      "geometry": {
        "type": "Point",
        "coordinates": [
          -99.1304217,
          23.7394122
        ]
      },
      "id": "node/4305233716"
    },
    {
      "type": "Feature",
      "properties": {
        "@id": "node/4309678589",
        "amenity": "university",
        "branch": "Campus Ciudad Victoria",
        "name": "Universidad del Valle de México"
      },
      "geometry": {
        "type": "Point",
        "coordinates": [
          -99.1441857,
          23.7333949
        ]
      },
      "id": "node/4309678589"
    },
    {
      "type": "Feature",
      "properties": {
        "@id": "node/4310152622",
        "amenity": "university",
        "name": "Rectoría Universidad Autónoma de Tamaulipas",
        "operator": "Universidad Autónoma de Tamaulipas",
        "operator:short": "UAT",
        "operator:type": "public"
      },
      "geometry": {
        "type": "Point",
        "coordinates": [
          -99.1448114,
          23.7329838
        ]
      },
      "id": "node/4310152622"
    },
    {
      "type": "Feature",
      "properties": {
        "@id": "node/4327302418",
        "amenity": "university",
        "name": "Normal Superior de Tamaulipas"
      },
      "geometry": {
        "type": "Point",
        "coordinates": [
          -99.1254014,
          23.7202582
        ]
      },
      "id": "node/4327302418"
    },
    {
      "type": "Feature",
      "properties": {
        "@id": "node/4893724537",
        "amenity": "college",
        "name": "LaTrobe Business School",
        "operator": "LaTrobe University"
      },
      "geometry": {
        "type": "Point",
        "coordinates": [
          145.0495478,
          -37.7203765
        ]
      },
      "id": "node/4893724537"
    },
    {
      "type": "Feature",
      "properties": {
        "@id": "node/5130544309",
        "amenity": "college",
        "name": "Study Hub"
      },
      "geometry": {
        "type": "Point",
        "coordinates": [
          145.119577,
          -37.9246578
        ]
      },
      "id": "node/5130544309"
    },
    {
      "type": "Feature",
      "properties": {
        "@id": "node/5195471033",
        "amenity": "college",
        "name": "Skills Plus"
      },
      "geometry": {
        "type": "Point",
        "coordinates": [
          145.1532171,
          -37.9448776
        ]
      },
      "id": "node/5195471033"
    },
    {
      "type": "Feature",
      "properties": {
        "@id": "node/5195526341",
        "amenity": "college",
        "name": "James And Coaching College"
      },
      "geometry": {
        "type": "Point",
        "coordinates": [
          145.1526614,
          -37.9513504
        ]
      },
      "id": "node/5195526341"
    },
    {
      "type": "Feature",
      "properties": {
        "@id": "node/5209387121",
        "amenity": "college",
        "name": "Inlingua",
        "website": "https://www.inlinguavictoria.com/"
      },
      "geometry": {
        "type": "Point",
        "coordinates": [
          -123.3683789,
          48.4238019
        ]
      },
      "id": "node/5209387121"
    },
    {
      "type": "Feature",
      "properties": {
        "@id": "node/5213728805",
        "amenity": "college",
        "name": "Maths Tuition"
      },
      "geometry": {
        "type": "Point",
        "coordinates": [
          145.1521092,
          -37.9574909
        ]
      },
      "id": "node/5213728805"
    },
    {
      "type": "Feature",
      "properties": {
        "@id": "node/5215342610",
        "amenity": "college",
        "name": "Emerge Training & Consulting"
      },
      "geometry": {
        "type": "Point",
        "coordinates": [
          145.1745496,
          -37.9667692
        ]
      },
      "id": "node/5215342610"
    },
    {
      "type": "Feature",
      "properties": {
        "@id": "node/5217624062",
        "amenity": "college",
        "name": "Health Arts College"
      },
      "geometry": {
        "type": "Point",
        "coordinates": [
          145.212594,
          -37.990729
        ]
      },
      "id": "node/5217624062"
    },
    {
      "type": "Feature",
      "properties": {
        "@id": "node/5227802636",
        "amenity": "college",
        "name": "Complex Institute Of Education"
      },
      "geometry": {
        "type": "Point",
        "coordinates": [
          145.2131648,
          -37.9880586
        ]
      },
      "id": "node/5227802636"
    },
    {
      "type": "Feature",
      "properties": {
        "@id": "node/5263269575",
        "amenity": "college",
        "name": "Scope"
      },
      "geometry": {
        "type": "Point",
        "coordinates": [
          145.0644264,
          -37.8903046
        ]
      },
      "id": "node/5263269575"
    },
    {
      "type": "Feature",
      "properties": {
        "@id": "node/5269011987",
        "amenity": "college",
        "name": "Maths Tuition Dạy Kèm Toán"
      },
      "geometry": {
        "type": "Point",
        "coordinates": [
          145.1603866,
          -37.9632099
        ]
      },
      "id": "node/5269011987"
    },
    {
      "type": "Feature",
      "properties": {
        "@id": "node/5285524953",
        "amenity": "college",
        "name": "Bri Training"
      },
      "geometry": {
        "type": "Point",
        "coordinates": [
          145.2118835,
          -37.9835099
        ]
      },
      "id": "node/5285524953"
    },
    {
      "type": "Feature",
      "properties": {
        "@id": "node/5285526941",
        "amenity": "college",
        "name": "Angel Institute of Education"
      },
      "geometry": {
        "type": "Point",
        "coordinates": [
          145.2118639,
          -37.9833926
        ]
      },
      "id": "node/5285526941"
    },
    {
      "type": "Feature",
      "properties": {
        "@id": "node/5326445928",
        "amenity": "university",
        "name": "La Trobe University"
      },
      "geometry": {
        "type": "Point",
        "coordinates": [
          144.282538,
          -36.7499918
        ]
      },
      "id": "node/5326445928"
    },
    {
      "type": "Feature",
      "properties": {
        "@id": "node/5574677105",
        "amenity": "college",
        "name": "The Laurels"
      },
      "geometry": {
        "type": "Point",
        "coordinates": [
          144.4432328,
          -37.6768169
        ]
      },
      "id": "node/5574677105"
    },
    {
      "type": "Feature",
      "properties": {
        "@id": "node/5651112575",
        "amenity": "college",
        "name": "NMIT Eden Park Campus"
      },
      "geometry": {
        "type": "Point",
        "coordinates": [
          145.0428011,
          -37.5051521
        ]
      },
      "id": "node/5651112575"
    },
    {
      "type": "Feature",
      "properties": {
        "@id": "node/5673924525",
        "addr:housenumber": "603-615",
        "addr:street": "Queensberry Street",
        "amenity": "college",
        "name": "Bastow Institute"
      },
      "geometry": {
        "type": "Point",
        "coordinates": [
          144.9470675,
          -37.8029982
        ]
      },
      "id": "node/5673924525"
    },
    {
      "type": "Feature",
      "properties": {
        "@id": "node/5963317138",
        "amenity": "college",
        "name": "Chisholm"
      },
      "geometry": {
        "type": "Point",
        "coordinates": [
          145.1523109,
          -37.9449071
        ]
      },
      "id": "node/5963317138"
    },
    {
      "type": "Feature",
      "properties": {
        "@id": "node/5963317149",
        "amenity": "college",
        "name": "ECCS Training Centre"
      },
      "geometry": {
        "type": "Point",
        "coordinates": [
          145.1510151,
          -37.9450738
        ]
      },
      "id": "node/5963317149"
    },
    {
      "type": "Feature",
      "properties": {
        "@id": "node/5963317156",
        "amenity": "college",
        "name": "James An",
        "name:en": "James An College",
        "opening_hours": "Tu-Sa 15:30-20:00",
        "website": "https://www.jamesancollegevic.com/"
      },
      "geometry": {
        "type": "Point",
        "coordinates": [
          145.1528618,
          -37.9448483
        ]
      },
      "id": "node/5963317156"
    },
    {
      "type": "Feature",
      "properties": {
        "@id": "node/5963317167",
        "amenity": "college",
        "name": "Edu Kingdom College"
      },
      "geometry": {
        "type": "Point",
        "coordinates": [
          145.1522911,
          -37.945272
        ]
      },
      "id": "node/5963317167"
    },
    {
      "type": "Feature",
      "properties": {
        "@id": "node/5986262899",
        "addr:city": "Aguadilla",
        "addr:postcode": "00603",
        "addr:state": "PR",
        "addr:street": "Carretera 111",
        "amenity": "university",
        "name": "CTMAPR"
      },
      "geometry": {
        "type": "Point",
        "coordinates": [
          -67.1515441,
          18.40226
        ]
      },
      "id": "node/5986262899"
    },
    {
      "type": "Feature",
      "properties": {
        "@id": "node/6017200039",
        "amenity": "college",
        "name": "James An College"
      },
      "geometry": {
        "type": "Point",
        "coordinates": [
          145.0044896,
          -37.7371387
        ]
      },
      "id": "node/6017200039"
    },
    {
      "type": "Feature",
      "properties": {
        "@id": "node/6017200067",
        "amenity": "college",
        "name": "Australia Asia Education"
      },
      "geometry": {
        "type": "Point",
        "coordinates": [
          145.004433,
          -37.7371292
        ]
      },
      "id": "node/6017200067"
    },
    {
      "type": "Feature",
      "properties": {
        "@id": "node/6017394187",
        "amenity": "college",
        "name": "St John’s College"
      },
      "geometry": {
        "type": "Point",
        "coordinates": [
          145.0041313,
          -37.7471696
        ]
      },
      "id": "node/6017394187"
    },
    {
      "type": "Feature",
      "properties": {
        "@id": "node/6017431767",
        "amenity": "college",
        "name": "Bright Institute"
      },
      "geometry": {
        "type": "Point",
        "coordinates": [
          144.999049,
          -37.7664138
        ]
      },
      "id": "node/6017431767"
    },
    {
      "type": "Feature",
      "properties": {
        "@id": "node/6021148739",
        "amenity": "college",
        "name": "Roshchem"
      },
      "geometry": {
        "type": "Point",
        "coordinates": [
          145.2026438,
          -37.9681308
        ]
      },
      "id": "node/6021148739"
    },
    {
      "type": "Feature",
      "properties": {
        "@id": "node/6065623706",
        "addr:housenumber": "160",
        "addr:street": "Drummond Street",
        "amenity": "college",
        "name": "Edu Kingdom College"
      },
      "geometry": {
        "type": "Point",
        "coordinates": [
          145.0900832,
          -37.8980611
        ]
      },
      "id": "node/6065623706"
    },
    {
      "type": "Feature",
      "properties": {
        "@id": "node/6110272012",
        "amenity": "college",
        "name": "Kumon"
      },
      "geometry": {
        "type": "Point",
        "coordinates": [
          144.7741065,
          -37.7713244
        ]
      },
      "id": "node/6110272012"
    },
    {
      "type": "Feature",
      "properties": {
        "@id": "node/6180383680",
        "amenity": "college",
        "name": "AMES Australia"
      },
      "geometry": {
        "type": "Point",
        "coordinates": [
          144.8945279,
          -37.7993041
        ]
      },
      "id": "node/6180383680"
    },
    {
      "type": "Feature",
      "properties": {
        "@id": "node/6298538459",
        "amenity": "college",
        "name": "Fly Amber"
      },
      "geometry": {
        "type": "Point",
        "coordinates": [
          144.8925207,
          -37.7217466
        ]
      },
      "id": "node/6298538459"
    },
    {
      "type": "Feature",
      "properties": {
        "@id": "node/6315164385",
        "addr:housenumber": "555",
        "addr:postcode": "3000",
        "addr:street": "La Trobe Street",
        "amenity": "college",
        "name": "William Angliss Institute",
        "website": "https://www.angliss.edu.au"
      },
      "geometry": {
        "type": "Point",
        "coordinates": [
          144.9537495,
          -37.812867
        ]
      },
      "id": "node/6315164385"
    },
    {
      "type": "Feature",
      "properties": {
        "@id": "node/6810299150",
        "amenity": "university",
        "name": "Monash University - City Campus"
      },
      "geometry": {
        "type": "Point",
        "coordinates": [
          144.9725205,
          -37.813534
        ]
      },
      "id": "node/6810299150"
    },
    {
      "type": "Feature",
      "properties": {
        "@id": "node/7071907258",
        "addr:city": "Beaumaris",
        "addr:housenumber": "117-136",
        "addr:postcode": "3193",
        "addr:street": "Reserve Road",
        "amenity": "college",
        "name": "Beaumaris Secondary College",
        "phone": "+61 3 8569 9200",
        "website": "http://www.beaumarissc.vic.edu.au/"
      },
      "geometry": {
        "type": "Point",
        "coordinates": [
          145.0334936,
          -37.9778321
        ]
      },
      "id": "node/7071907258"
    },
    {
      "type": "Feature",
      "properties": {
        "@id": "node/7228317548",
        "amenity": "university",
        "name": "RMIT City Campus Children's Centre",
        "note": "Accessibility: category 5",
        "operator": "RMIT"
      },
      "geometry": {
        "type": "Point",
        "coordinates": [
          144.9657385,
          -37.8064173
        ]
      },
      "id": "node/7228317548"
    },
    {
      "type": "Feature",
      "properties": {
        "@id": "node/7228317550",
        "amenity": "university",
        "name": "RMIT Electric Racing",
        "note": "Accessibility: category 5",
        "operator": "RMIT"
      },
      "geometry": {
        "type": "Point",
        "coordinates": [
          144.9659,
          -37.8055547
        ]
      },
      "id": "node/7228317550"
    },
    {
      "type": "Feature",
      "properties": {
        "@id": "node/7228317551",
        "amenity": "university",
        "name": "RMIT Building 56",
        "note": "Accessibility: category 5",
        "operator": "RMIT"
      },
      "geometry": {
        "type": "Point",
        "coordinates": [
          144.9659401,
          -37.8051408
        ]
      },
      "id": "node/7228317551"
    },
    {
      "type": "Feature",
      "properties": {
        "@id": "node/7272755716",
        "addr:city": "Victoria",
        "addr:housenumber": "2705",
        "addr:postcode": "77901",
        "addr:state": "TX",
        "addr:street": "Houston Higway",
        "amenity": "university",
        "name": "Jaguar Village",
        "operator": "University of Houston-Victoria",
        "website": "https://www.uhv.edu/"
      },
      "geometry": {
        "type": "Point",
        "coordinates": [
          -96.9759693,
          28.8109678
        ]
      },
      "id": "node/7272755716"
    },
    {
      "type": "Feature",
      "properties": {
        "@id": "node/7284228046",
        "addr:housenumber": "129",
        "addr:street": "Nerrena Road",
        "alt_name": "Gipps TAFE Leongatha Campus",
        "amenity": "college",
        "contact:email": "enquiries@tafegippsland.edu.au",
        "contact:facebook": "https://www.facebook.com/TAFEGippsland",
        "contact:phone": "+61 1300 133 717",
        "name": "TAFE Gippsland Leongatha Campus",
        "website": "https://www.tafegippsland.edu.au/campuses/leongatha"
      },
      "geometry": {
        "type": "Point",
        "coordinates": [
          145.9642761,
          -38.4786785
        ]
      },
      "id": "node/7284228046"
    },
    {
      "type": "Feature",
      "properties": {
        "@id": "node/8949872479",
        "addr:street": "Shea Street",
        "amenity": "college",
        "mobile": "+61 436 640 118",
        "name": "Rail Academy Newport",
        "website": "https://railacademy.vic.gov.au/"
      },
      "geometry": {
        "type": "Point",
        "coordinates": [
          144.8827332,
          -37.8472165
        ]
      },
      "id": "node/8949872479"
    },
    {
      "type": "Feature",
      "properties": {
        "@id": "node/9310021510",
        "addr:housenumber": "42-50",
        "addr:street": "Bakehouse Road",
        "amenity": "college",
        "name": "Metro Academy"
      },
      "geometry": {
        "type": "Point",
        "coordinates": [
          144.9295311,
          -37.7991253
        ]
      },
      "id": "node/9310021510"
    },
    {
      "type": "Feature",
      "properties": {
        "@id": "node/9531083017",
        "amenity": "college",
        "name": "Building 51 RMIT"
      },
      "geometry": {
        "type": "Point",
        "coordinates": [
          144.9645028,
          -37.8070847
        ]
      },
      "id": "node/9531083017"
    },
    {
      "type": "Feature",
      "properties": {
        "@id": "node/10170570712",
        "addr:housenumber": "58",
        "addr:postcode": "3000",
        "addr:state": "VIC",
        "addr:street": "Franklin Street",
        "addr:suburb": "Melbourne",
        "amenity": "college",
        "email": "info@anc.vic.edu.au",
        "name": "Australian National College",
        "phone": "+61 3 9662 3300",
        "website": "https://anc.vic.edu.au/"
      },
      "geometry": {
        "type": "Point",
        "coordinates": [
          144.9608596,
          -37.8075506
        ]
      },
      "id": "node/10170570712"
    },
    {
      "type": "Feature",
      "properties": {
        "@id": "node/10247574703",
        "addr:housenumber": "49",
        "addr:street": "Henderson Street",
        "amenity": "college",
        "name": "Barkly International College"
      },
      "geometry": {
        "type": "Point",
        "coordinates": [
          144.9391231,
          -37.7975704
        ]
      },
      "id": "node/10247574703"
    },
    {
      "type": "Feature",
      "properties": {
        "@id": "node/10288367898",
        "addr:housenumber": "1",
        "addr:postcode": "3136",
        "addr:state": "VIC",
        "addr:street": "Civic Square",
        "addr:suburb": "Croydon",
        "amenity": "college",
        "name": "U3A Croydon",
        "website": "https://u3acroydon.org.au/"
      },
      "geometry": {
        "type": "Point",
        "coordinates": [
          145.2831034,
          -37.8011259
        ]
      },
      "id": "node/10288367898"
    },
    {
      "type": "Feature",
      "properties": {
        "@id": "node/10828409255",
        "amenity": "university",
        "name": "Telstra Creator Space",
        "operator": "University of Melbourne",
        "operator:type": "university"
      },
      "geometry": {
        "type": "Point",
        "coordinates": [
          144.9643338,
          -37.8000374
        ]
      },
      "id": "node/10828409255"
    },
    {
      "type": "Feature",
      "properties": {
        "@id": "node/10904938096",
        "amenity": "university",
        "check_date": "2023-06-16",
        "description": "The Wilin Centre for Indigenous Arts & Cultural Development works with Aboriginal & Torres Strait Islander communities to identify, recruit & support potential & practicing Indigenous artists to study & refine their academic & artistic skills at the FFAM",
        "internet_access": "yes",
        "internet_access:fee": "customers",
        "name": "Wilin Centre",
        "operator": "University of Melbourne",
        "operator:type": "government",
        "website": "https://finearts-music.unimelb.edu.au/about-us/wilin",
        "wheelchair": "limited"
      },
      "geometry": {
        "type": "Point",
        "coordinates": [
          144.9681039,
          -37.8246942
        ]
      },
      "id": "node/10904938096"
    }
  ]
}